start=new Date('2022-11-25T00:00:00.000Z').valueOf();
sats=[{"PERIAPSIS":"546.130","TLE_LINE2":"2 46118  53.0557 308.1437 0001596  64.0257 296.0896 15.06392772126324","INCLINATION":"53.0557","SITE":"AFETR","APOAPSIS":"548.341","MEAN_ANOMALY":"296.0896","ARG_OF_PERICENTER":"64.0257","MEAN_ELEMENT_THEORY":"SGP4","TIME_SYSTEM":"UTC","TLE_LINE1":"1 46118U 20057B   22328.68125848 -.00000122  00000-0  10708-4 0  9999","ELEMENT_SET_NO":"999","SEMIMAJOR_AXIS":"6925.371","CLASSIFICATION_TYPE":"U","REV_AT_EPOCH":"12632","MEAN_MOTION_DOT":"-0.00000122","FILE":"3669335","OBJECT_TYPE":"PAYLOAD","OBJECT_ID":"2020-057B","LAUNCH_DATE":"2020-08-18","MEAN_MOTION":"15.06392772","PERIOD":"95.593","NORAD_CAT_ID":"46118","ECCENTRICITY":"0.00015960","REF_FRAME":"TEME","MEAN_MOTION_DDOT":"0.0000000000000","COUNTRY_CODE":"US","EPHEMERIS_TYPE":"0","OBJECT_NAME":"STARLINK-1588","EPOCH":"2022-11-24T16:21:00.732672","RA_OF_ASC_NODE":"308.1437","BSTAR":"0.00001070800000","RCS_SIZE":"LARGE","CENTER_NAME":"EARTH","GP_ID":"218719918","DECAY_DATE":null},{"INCLINATION":"53.0549","APOAPSIS":"548.648","SITE":"AFETR","TLE_LINE2":"2 46119  53.0549 308.1950 0002076  51.6827 308.4348 15.06401158126302","PERIAPSIS":"545.772","TLE_LINE1":"1 46119U 20057C   22328.67019371  .00002719  00000-0  20134-3 0  9998","ELEMENT_SET_NO":"999","MEAN_ELEMENT_THEORY":"SGP4","TIME_SYSTEM":"UTC","MEAN_ANOMALY":"308.4348","ARG_OF_PERICENTER":"51.6827","MEAN_MOTION_DOT":"0.00002719","SEMIMAJOR_AXIS":"6925.345","CLASSIFICATION_TYPE":"U","REV_AT_EPOCH":"12630","LAUNCH_DATE":"2020-08-18","OBJECT_ID":"2020-057C","MEAN_MOTION":"15.06401158","PERIOD":"95.592","OBJECT_TYPE":"PAYLOAD","FILE":"3669335","NORAD_CAT_ID":"46119","OBJECT_NAME":"STARLINK-1593","EPHEMERIS_TYPE":"0","COUNTRY_CODE":"US","REF_FRAME":"TEME","MEAN_MOTION_DDOT":"0.0000000000000","ECCENTRICITY":"0.00020760","RCS_SIZE":"LARGE","BSTAR":"0.00020134000000","CENTER_NAME":"EARTH","RA_OF_ASC_NODE":"308.1950","EPOCH":"2022-11-24T16:05:04.736544","DECAY_DATE":null,"GP_ID":"218720168"},{"TLE_LINE2":"2 46120  53.0545 309.7741 0001874  50.9089 309.2066 15.06403418126275","INCLINATION":"53.0545","APOAPSIS":"548.501","SITE":"AFETR","PERIAPSIS":"545.905","TLE_LINE1":"1 46120U 20057D   22328.32371297  .00000347  00000-0  42193-4 0  9995","ELEMENT_SET_NO":"999","MEAN_ANOMALY":"309.2066","ARG_OF_PERICENTER":"50.9089","MEAN_ELEMENT_THEORY":"SGP4","TIME_SYSTEM":"UTC","MEAN_MOTION_DOT":"0.00000347","SEMIMAJOR_AXIS":"6925.338","REV_AT_EPOCH":"12627","CLASSIFICATION_TYPE":"U","OBJECT_TYPE":"PAYLOAD","OBJECT_ID":"2020-057D","LAUNCH_DATE":"2020-08-18","PERIOD":"95.592","MEAN_MOTION":"15.06403418","FILE":"3669022","NORAD_CAT_ID":"46120","EPHEMERIS_TYPE":"0","COUNTRY_CODE":"US","OBJECT_NAME":"STARLINK-1601","ECCENTRICITY":"0.00018740","MEAN_MOTION_DDOT":"0.0000000000000","REF_FRAME":"TEME","RA_OF_ASC_NODE":"309.7741","RCS_SIZE":"LARGE","BSTAR":"0.00004219300000","CENTER_NAME":"EARTH","EPOCH":"2022-11-24T07:46:08.800608","GP_ID":"218663843","DECAY_DATE":null},{"ELEMENT_SET_NO":"999","TLE_LINE1":"1 46121U 20057E   22328.88950872  .00000936  00000-0  81724-4 0  9996","ARG_OF_PERICENTER":"47.2008","MEAN_ANOMALY":"312.9152","TIME_SYSTEM":"UTC","MEAN_ELEMENT_THEORY":"SGP4","TLE_LINE2":"2 46121  53.0553 287.2286 0002039  47.2008 312.9152 15.06399748125358","APOAPSIS":"548.626","SITE":"AFETR","INCLINATION":"53.0553","PERIAPSIS":"545.802","OBJECT_TYPE":"PAYLOAD","MEAN_MOTION":"15.06399748","PERIOD":"95.592","LAUNCH_DATE":"2020-08-18","OBJECT_ID":"2020-057E","FILE":"3669335","MEAN_MOTION_DOT":"0.00000936","CLASSIFICATION_TYPE":"U","REV_AT_EPOCH":"12535","SEMIMAJOR_AXIS":"6925.349","EPHEMERIS_TYPE":"0","COUNTRY_CODE":"US","OBJECT_NAME":"STARLINK-1602","ECCENTRICITY":"0.00020390","MEAN_MOTION_DDOT":"0.0000000000000","REF_FRAME":"TEME","NORAD_CAT_ID":"46121","GP_ID":"218721162","DECAY_DATE":null,"RA_OF_ASC_NODE":"287.2286","CENTER_NAME":"EARTH","RCS_SIZE":"LARGE","BSTAR":"0.00008172400000","EPOCH":"2022-11-24T21:20:53.553408"},{"ELEMENT_SET_NO":"999","TLE_LINE1":"1 46122U 20057F   22328.83238121  .00000364  00000-0  43319-4 0  9991","ARG_OF_PERICENTER":"57.6262","MEAN_ANOMALY":"302.4901","TIME_SYSTEM":"UTC","MEAN_ELEMENT_THEORY":"SGP4","TLE_LINE2":"2 46122  53.0566 267.4668 0001802  57.6262 302.4901 15.06390527126882","APOAPSIS":"548.491","SITE":"AFETR","INCLINATION":"53.0566","PERIAPSIS":"545.995","OBJECT_TYPE":"PAYLOAD","MEAN_MOTION":"15.06390527","PERIOD":"95.593","OBJECT_ID":"2020-057F","LAUNCH_DATE":"2020-08-18","FILE":"3669335","MEAN_MOTION_DOT":"0.00000364","REV_AT_EPOCH":"12688","CLASSIFICATION_TYPE":"U","SEMIMAJOR_AXIS":"6925.378","COUNTRY_CODE":"US","EPHEMERIS_TYPE":"0","OBJECT_NAME":"STARLINK-1604","ECCENTRICITY":"0.00018020","REF_FRAME":"TEME","MEAN_MOTION_DDOT":"0.0000000000000","NORAD_CAT_ID":"46122","GP_ID":"218720417","DECAY_DATE":null,"RA_OF_ASC_NODE":"267.4668","CENTER_NAME":"EARTH","BSTAR":"0.00004331900000","RCS_SIZE":"LARGE","EPOCH":"2022-11-24T19:58:37.736544"},{"NORAD_CAT_ID":"46123","ECCENTRICITY":"0.00018260","REF_FRAME":"TEME","MEAN_MOTION_DDOT":"0.0000000000000","COUNTRY_CODE":"US","EPHEMERIS_TYPE":"0","OBJECT_NAME":"STARLINK-1605","EPOCH":"2022-11-24T19:37:24.228192","RA_OF_ASC_NODE":"267.5526","CENTER_NAME":"EARTH","BSTAR":"0.00005323900000","RCS_SIZE":"LARGE","GP_ID":"218720667","DECAY_DATE":null,"PERIAPSIS":"545.965","TLE_LINE2":"2 46123  53.0550 267.5526 0001826  52.9317 307.1839 15.06394830126901","APOAPSIS":"548.494","SITE":"AFETR","INCLINATION":"53.0550","ARG_OF_PERICENTER":"52.9317","MEAN_ANOMALY":"307.1839","TIME_SYSTEM":"UTC","MEAN_ELEMENT_THEORY":"SGP4","ELEMENT_SET_NO":"999","TLE_LINE1":"1 46123U 20057G   22328.81764153  .00000511  00000-0  53239-4 0  9995","REV_AT_EPOCH":"12690","CLASSIFICATION_TYPE":"U","SEMIMAJOR_AXIS":"6925.364","MEAN_MOTION_DOT":"0.00000511","FILE":"3669335","OBJECT_TYPE":"PAYLOAD","MEAN_MOTION":"15.06394830","PERIOD":"95.592","OBJECT_ID":"2020-057G","LAUNCH_DATE":"2020-08-18"},{"DECAY_DATE":null,"GP_ID":"218720919","EPOCH":"2022-11-24T19:48:00.210816","BSTAR":"0.00021098000000","RCS_SIZE":"LARGE","CENTER_NAME":"EARTH","RA_OF_ASC_NODE":"267.5055","MEAN_MOTION_DDOT":"0.0000000000000","REF_FRAME":"TEME","ECCENTRICITY":"0.00021400","OBJECT_NAME":"STARLINK-1614","EPHEMERIS_TYPE":"0","COUNTRY_CODE":"US","NORAD_CAT_ID":"46124","FILE":"3669335","OBJECT_ID":"2020-057H","LAUNCH_DATE":"2020-08-18","PERIOD":"95.592","MEAN_MOTION":"15.06404396","OBJECT_TYPE":"PAYLOAD","SEMIMAJOR_AXIS":"6925.335","REV_AT_EPOCH":"12563","CLASSIFICATION_TYPE":"U","MEAN_MOTION_DOT":"0.00002863","MEAN_ELEMENT_THEORY":"SGP4","TIME_SYSTEM":"UTC","MEAN_ANOMALY":"307.2008","ARG_OF_PERICENTER":"52.9176","TLE_LINE1":"1 46124U 20057H   22328.82500244  .00002863  00000-0  21098-3 0  9995","ELEMENT_SET_NO":"999","PERIAPSIS":"545.718","INCLINATION":"53.0556","SITE":"AFETR","APOAPSIS":"548.682","TLE_LINE2":"2 46124  53.0556 267.5055 0002140  52.9176 307.2008 15.06404396125635"},{"DECAY_DATE":null,"GP_ID":"218696511","EPOCH":"2022-11-24T16:10:23.648448","BSTAR":"0.00011603000000","RCS_SIZE":"LARGE","CENTER_NAME":"EARTH","RA_OF_ASC_NODE":"308.1986","REF_FRAME":"TEME","MEAN_MOTION_DDOT":"0.0000000000000","ECCENTRICITY":"0.00018510","OBJECT_NAME":"STARLINK-1618","COUNTRY_CODE":"US","EPHEMERIS_TYPE":"0","NORAD_CAT_ID":"46125","FILE":"3669045","LAUNCH_DATE":"2020-08-18","OBJECT_ID":"2020-057J","MEAN_MOTION":"15.06393495","PERIOD":"95.593","OBJECT_TYPE":"PAYLOAD","SEMIMAJOR_AXIS":"6925.368","CLASSIFICATION_TYPE":"U","REV_AT_EPOCH":"12570","MEAN_MOTION_DOT":"0.00001447","MEAN_ELEMENT_THEORY":"SGP4","TIME_SYSTEM":"UTC","MEAN_ANOMALY":"302.2642","ARG_OF_PERICENTER":"57.8526","TLE_LINE1":"1 46125U 20057J   22328.67388482  .00001447  00000-0  11603-3 0  9995","ELEMENT_SET_NO":"999","PERIAPSIS":"545.952","INCLINATION":"53.0548","SITE":"AFETR","APOAPSIS":"548.515","TLE_LINE2":"2 46125  53.0548 308.1986 0001851  57.8526 302.2642 15.06393495125707"},{"MEAN_MOTION_DOT":"-0.00000146","REV_AT_EPOCH":"12504","CLASSIFICATION_TYPE":"U","SEMIMAJOR_AXIS":"6925.363","OBJECT_TYPE":"PAYLOAD","MEAN_MOTION":"15.06395317","PERIOD":"95.592","OBJECT_ID":"2020-057K","LAUNCH_DATE":"2020-08-18","FILE":"3669335","TLE_LINE2":"2 46126  53.0548 308.3180 0001654  55.7620 304.3526 15.06395317125045","APOAPSIS":"548.373","SITE":"AFETR","INCLINATION":"53.0548","PERIAPSIS":"546.082","ELEMENT_SET_NO":"999","TLE_LINE1":"1 46126U 20057K   22328.64808067 -.00000146  00000-0  91101-5 0  9998","ARG_OF_PERICENTER":"55.7620","MEAN_ANOMALY":"304.3526","TIME_SYSTEM":"UTC","MEAN_ELEMENT_THEORY":"SGP4","RA_OF_ASC_NODE":"308.3180","CENTER_NAME":"EARTH","BSTAR":"0.00000911010000","RCS_SIZE":"LARGE","EPOCH":"2022-11-24T15:33:14.169888","GP_ID":"218719919","DECAY_DATE":null,"NORAD_CAT_ID":"46126","EPHEMERIS_TYPE":"0","COUNTRY_CODE":"US","OBJECT_NAME":"STARLINK-1619","ECCENTRICITY":"0.00016540","MEAN_MOTION_DDOT":"0.0000000000000","REF_FRAME":"TEME"},{"MEAN_MOTION_DOT":"0.00000104","SEMIMAJOR_AXIS":"6925.338","CLASSIFICATION_TYPE":"U","REV_AT_EPOCH":"12535","OBJECT_TYPE":"PAYLOAD","OBJECT_ID":"2020-057L","LAUNCH_DATE":"2020-08-18","PERIOD":"95.592","MEAN_MOTION":"15.06403480","FILE":"3669335","TLE_LINE2":"2 46127  53.0560 287.1533 0002401  42.0984 318.0189 15.06403480125351","INCLINATION":"53.0560","APOAPSIS":"548.866","SITE":"AFETR","PERIAPSIS":"545.540","TLE_LINE1":"1 46127U 20057L   22328.90424624  .00000104  00000-0  25927-4 0  9996","ELEMENT_SET_NO":"999","MEAN_ANOMALY":"318.0189","ARG_OF_PERICENTER":"42.0984","MEAN_ELEMENT_THEORY":"SGP4","TIME_SYSTEM":"UTC","RA_OF_ASC_NODE":"287.1533","BSTAR":"0.00002592700000","RCS_SIZE":"LARGE","CENTER_NAME":"EARTH","EPOCH":"2022-11-24T21:42:06.875136","GP_ID":"218720169","DECAY_DATE":null,"NORAD_CAT_ID":"46127","COUNTRY_CODE":"US","EPHEMERIS_TYPE":"0","OBJECT_NAME":"STARLINK-1621","ECCENTRICITY":"0.00024010","MEAN_MOTION_DDOT":"0.0000000000000","REF_FRAME":"TEME"}];
